; Generated by PrusaSlicer 2.7.0
; layer_height = 0.2
; filament used [mm] = 1243.5
; estimated printing time (normal mode) = 1h 23m
; nozzle_temperature = 210
; bed_temperature = 60
M104 S210 ; set nozzle temp
M140 S60 ; set bed temp
M109 S210 ; wait for nozzle
M190 S60 ; wait for bed
G28 ; home all axes
G1 Z5 F5000
;LAYER:0
G1 X10 Y10 F3000
G1 X100 Y10 E5.0 F1500
G1 X100 Y100 E10.0
G1 X10 Y100 E15.0
G1 X10 Y10 E20.0
;LAYER:1
G1 Z0.4 F5000
G1 X10 Y10 F3000
G1 X100 Y10 E25.0 F1500
M104 S0 ; turn off nozzle
M140 S0 ; turn off bed
M84 ; disable motors
