{
  "type": "FeatureCollection",
  "features": [
    {
      "type": "Feature",
      "properties": {
        "name": "Central Park",
        "type": "park"
      },
      "geometry": {
        "type": "Polygon",
        "coordinates": [
          [
            [
              -73.981,
              40.768
            ],
            [
              -73.958,
              40.8
            ],
            [
              -73.949,
              40.797
            ],
            [
              -73.973,
              40.764
            ],
            [
              -73.981,
              40.768
            ]
          ]
        ]
      }
    },
    {
      "type": "Feature",
      "properties": {
        "name": "Times Square",
        "type": "landmark"
      },
      "geometry": {
        "type": "Point",
        "coordinates": [
          -73.9855,
          40.758
        ]
      }
    },
    {
      "type": "Feature",
      "properties": {
        "name": "Brooklyn Bridge",
        "type": "bridge"
      },
      "geometry": {
        "type": "LineString",
        "coordinates": [
          [
            -73.9969,
            40.7061
          ],
          [
            -73.9903,
            40.7024
          ],
          [
            -73.9834,
            40.6983
          ]
        ]
      }
    }
  ]
}